[{"OBJECT_NAME":"TIANYI F","OBJECT_ID":"2025-103F","EPOCH":"2026-03-09T23:54:55.522944","MEAN_MOTION":15.18246358,"ECCENTRICITY":0.00043161,"INCLINATION":97.388,"RA_OF_ASC_NODE":142.7834,"ARG_OF_PERICENTER":136.4512,"MEAN_ANOMALY":223.7064,"EPHEMERIS_TYPE":0,"CLASSIFICATION_TYPE":"U","NORAD_CAT_ID":64053,"ELEMENT_SET_NO":999,"REV_AT_EPOCH":4499,"BSTAR":0.00028443218,"MEAN_MOTION_DOT":5.759e-5,"MEAN_MOTION_DDOT":0},{"OBJECT_NAME":"GENA-OT","OBJECT_ID":"2025-276DN","EPOCH":"2026-03-09T17:45:26.597088","MEAN_MOTION":15.19877093,"ECCENTRICITY":0.00019544,"INCLINATION":97.4281,"RA_OF_ASC_NODE":144.1751,"ARG_OF_PERICENTER":148.5398,"MEAN_ANOMALY":211.5954,"EPHEMERIS_TYPE":0,"CLASSIFICATION_TYPE":"U","NORAD_CAT_ID":66774,"ELEMENT_SET_NO":999,"REV_AT_EPOCH":1533,"BSTAR":0.00037147435,"MEAN_MOTION_DOT":7.907e-5,"MEAN_MOTION_DDOT":0}]
